IONOSFERA-M 2           
1 61736U 24199B   26170.90046531  .00000023  00000+0  29713-4 0  9992
2 61736  98.7169  43.9546 0000934  37.8794 322.2449 14.22758026131211
PRSC-EO1                
1 62725U 25012A   26170.96092939  .00005605  00000+0  28175-3 0  9996
2 62725  97.4220 243.3669 0004980 240.0723 120.0017 15.17636695 78612
BIOMASS                 
1 63772U 25090A   26170.48806227  .00000147  00000+0  34376-4 0  9992
2 63772  98.0741 357.7719 0001441  97.3005 262.8363 14.67536360 61029
GOSAT-GW (IBUKI GW)     
1 64694U 25141A   26170.91740824  .00000026  00000+0  12982-4 0  9996
2 64694  98.0572 108.1900 0001440  82.9394 277.1975 14.67554654 52243
IONOSFERA-M 3           
1 64876U 25155A   26170.92059238  .00000037  00000+0  36728-4 0  9992
2 64876  98.6032 132.7568 0001169 152.1261 207.9979 14.21486838 46792
IONOSFERA-M 4           
1 64877U 25155B   26170.95542964  .00000040  00000+0  37845-4 0  9994
2 64877  98.6031 132.7082 0001146 120.0439 240.0853 14.21489090 46791
MICROCARB               
1 64899U 25156A   26170.73225538  .00000372  00000+0  66639-4 0  9991
2 64899  97.9831 247.8241 0014989 263.3237  96.6264 14.72327730 48348
CO3D 3                  
1 64900U 25156B   26170.88636408  .00003536  00000+0  16634-3 0  9996
2 64900  97.4327 249.5409 0001617 129.1771 230.9608 15.20212728 49943
CO3D 4                  
1 64901U 25156C   26170.88651572  .00000217  00000+0  13126-4 0  9993
2 64901  97.4333 249.5409 0000131 295.2544  64.8678 15.20193123 49942
CO3D 2                  
1 64902U 25156D   26170.91899250  .00003286  00000+0  15480-3 0  9998
2 64902  97.4328 249.4719 0001535 106.9474 253.1930 15.20214380 49942
CO3D 1                  
1 64903U 25156E   26170.91914595  .00004208  00000+0  19730-3 0  9996
2 64903  97.4325 249.4723 0001341 113.7258 246.4118 15.20214518 49942
PRSC-S1                 
1 65055U 25164A   26170.78322279  .00003494  00000+0  24427-3 0  9996
2 65055  41.1303 273.1917 0006201   1.2153 358.8675 15.06476945 48827
SENTINEL-6B             
1 66514U 25264A   26170.58426147 -.00000052  00000+0  41222-4 0  9996
2 66514  66.0398 130.1996 0008002 269.1481  90.8617 12.80929984 27479
CAS500-3                
1 66655U 25274F   26170.77002400  .00000949  00000+0  10834-3 0  9994
2 66655  97.7445  98.7623 0006829 103.5888 256.6090 14.88326213 30536
CSG-3                   
1 67304U 26001A   26170.49439741  .00000236  00000+0  36262-4 0  9999
2 67304  97.8888 354.0628 0001377  94.9001 265.2370 14.82155084 24806
PRSC-E03                
1 68835U 26092A   26170.90552902  .00002187  00000+0  15175-3 0  9996
2 68835  38.0013  73.6504 0003229  27.3982 332.6949 15.06680264  8360
CAS500-2                
1 69013U 26100AK  26170.78440174  .00005321  00000+0  24544-3 0  9991
2 69013  97.4070  68.5943 0010442  26.6140 333.5629 15.20615764  7200
