OBJECT_NAME,OBJECT_ID,EPOCH,MEAN_MOTION,ECCENTRICITY,INCLINATION,RA_OF_ASC_NODE,ARG_OF_PERICENTER,MEAN_ANOMALY,EPHEMERIS_TYPE,CLASSIFICATION_TYPE,NORAD_CAT_ID,ELEMENT_SET_NO,REV_AT_EPOCH,BSTAR,MEAN_MOTION_DOT,MEAN_MOTION_DDOT
IONOSFERA-M 2,2024-199B,2026-06-19T21:36:40.202784,14.22758026,.00009349,98.7169,43.9546,37.8794,322.2449,0,U,61736,999,13121,.29712749E-4,.23E-6,0
PRSC-EO1,2025-012A,2026-06-19T23:03:44.299296,15.17636695,.00049806,97.4220,243.3669,240.0723,120.0017,0,U,62725,999,7861,.28175453E-3,.5605E-4,0
BIOMASS,2025-090A,2026-06-19T11:42:48.580128,14.67536360,.00014411,98.0741,357.7719,97.3005,262.8363,0,U,63772,999,6102,.3437599E-4,.147E-5,0
GOSAT-GW (IBUKI GW),2025-141A,2026-06-19T22:01:04.071936,14.67554654,.00014408,98.0572,108.1900,82.9394,277.1975,0,U,64694,999,5224,.12981565E-4,.26E-6,0
IONOSFERA-M 3,2025-155A,2026-06-19T22:05:39.181632,14.21486838,.00011691,98.6032,132.7568,152.1261,207.9979,0,U,64876,999,4679,.36727676E-4,.37E-6,0
IONOSFERA-M 4,2025-155B,2026-06-19T22:55:49.120896,14.21489090,.00011467,98.6031,132.7082,120.0439,240.0853,0,U,64877,999,4679,.37844993E-4,.4E-6,0
MICROCARB,2025-156A,2026-06-19T17:34:26.864832,14.72327730,.00149899,97.9831,247.8241,263.3237,96.6264,0,U,64899,999,4834,.66638839E-4,.372E-5,0
CO3D 3,2025-156B,2026-06-19T21:16:21.856512,15.20212728,.00016178,97.4327,249.5409,129.1771,230.9608,0,U,64900,999,4994,.16634017E-3,.3536E-4,0
CO3D 4,2025-156C,2026-06-19T21:16:34.958208,15.20193123,.0000131,97.4333,249.5409,295.2544,64.8678,0,U,64901,999,4994,.13125888E-4,.217E-5,0
CO3D 2,2025-156D,2026-06-19T22:03:20.952000,15.20214380,.00015352,97.4328,249.4719,106.9474,253.1930,0,U,64902,999,4994,.15480017E-3,.3286E-4,0
CO3D 1,2025-156E,2026-06-19T22:03:34.210080,15.20214518,.00013418,97.4325,249.4723,113.7258,246.4118,0,U,64903,999,4994,.19730339E-3,.4208E-4,0
PRSC-S1,2025-164A,2026-06-19T18:47:50.449056,15.06476945,.00062013,41.1303,273.1917,1.2153,358.8675,0,U,65055,999,4882,.24427451E-3,.3494E-4,0
SENTINEL-6B,2025-264A,2026-06-19T14:01:20.191008,12.80929984,.00080027,66.0398,130.1996,269.1481,90.8617,0,U,66514,999,2747,.41221649E-4,-.52E-6,0
CAS500-3,2025-274F,2026-06-19T18:28:50.073600,14.88326213,.00068297,97.7445,98.7623,103.5888,256.6090,0,U,66655,999,3053,.10833717E-3,.949E-5,0
CSG-3,2026-001A,2026-06-19T11:51:55.936224,14.82155084,.00013771,97.8888,354.0628,94.9001,265.2370,0,U,67304,999,2480,.36262382E-4,.236E-5,0
PRSC-E03,2026-092A,2026-06-19T21:43:57.707328,15.06680264,.00032299,38.0013,73.6504,27.3982,332.6949,0,U,68835,999,836,.15174634E-3,.2187E-4,0
CAS500-2,2026-100AK,2026-06-19T18:49:32.310336,15.20615764,.00104423,97.4070,68.5943,26.6140,333.5629,0,U,69013,999,720,.24544085E-3,.5321E-4,0
